NORAD_CAT_ID,OBJECT_NAME,OBJECT_TYPE,EPOCH,MEAN_MOTION,ECCENTRICITY,INCLINATION,RA_OF_ASC_NODE,ARG_OF_PERICENTER,MEAN_ANOMALY,BSTAR,MEAN_MOTION_DOT,MEAN_MOTION_DDOT,TLE_LINE0,TLE_LINE1,TLE_LINE2,SEMIMAJOR_AXIS,PERIOD,APOGEE,PERIGEE,DECAYED
53975.0,STARLINK-5137,PAYLOAD,2023-03-01 16:30:49,15.10456312,0.0001435,53.2171,135.3125,63.4608,296.6532,0.0018163,0.00030056,0.0,0 STARLINK-5137,1 53975U 22125M   23060.68806794  .00030056  00000-0  18163-2 0  9995,2 53975  53.2171 135.3125 0001435  63.4608 296.6532 15.10456312 22724,6912.944,95.335,535.801,533.817,0.0
53975.0,STARLINK-5137,PAYLOAD,2023-03-02 16:20:01,15.10533598,0.0001692,53.2174,130.845,56.6962,303.4193,0.0022633,0.00037646,0.0,0 STARLINK-5137,1 53975U 22125M   23061.68057755  .00037646  00000-0  22633-2 0  9990,2 53975  53.2174 130.8450 0001692  56.6962 303.4193 15.10533598 22878,6912.709,95.331,535.743,533.404,0.0
53975.0,STARLINK-5137,PAYLOAD,2023-03-03 05:02:17,15.10509368,0.0001445,53.2176,128.4621,63.5961,296.5181,0.0012457,0.00020524,0.0,0 STARLINK-5137,1 53975U 22125M   23062.20992055  .00020524  00000-0  12457-2 0  9990,2 53975  53.2176 128.4621 0001445  63.5961 296.5181 15.10509368 23020,6912.782,95.332,535.646,533.649,0.0
53975.0,STARLINK-5137,PAYLOAD,2023-03-03 11:23:24,15.10527225,0.0001523,53.2174,127.2708,71.4377,288.6781,0.0025852,0.00043067,0.0,0 STARLINK-5137,1 53975U 22125M   23062.47458791  .00043067  00000-0  25852-2 0  9993,2 53975  53.2174 127.2708 0001523  71.4377 288.6781 15.10527225 22992,6912.728,95.331,535.646,533.54,0.0
53975.0,STARLINK-5137,PAYLOAD,2023-03-03 16:09:14,15.10544143,0.0001544,53.2173,126.3772,73.3256,286.7906,0.0030204,0.00050442,0.0,0 STARLINK-5137,1 53975U 22125M   23062.67308546  .00050442  00000-0  30204-2 0  9999,2 53975  53.2173 126.3772 0001544  73.3256 286.7906 15.10544143 23090,6912.676,95.33,535.609,533.474,0.0
53975.0,STARLINK-5137,PAYLOAD,2023-03-03 20:55:05,15.10464516,0.0001569,53.2177,125.4848,85.7705,274.3467,2.6248e-05,1.44e-06,0.0,0 STARLINK-5137,1 53975U 22125M   23062.87159596  .00000144  00000-0  26248-4 0  9999,2 53975  53.2177 125.4848 0001569  85.7705 274.3467 15.10464516 23057,6912.919,95.335,535.869,533.7,0.0
53975.0,STARLINK-5137,PAYLOAD,2023-03-04 08:02:04,15.10487603,0.000105,53.2176,123.4006,99.3444,260.7667,0.0020179,0.00033469,0.0,0 STARLINK-5137,1 53975U 22125M   23063.33477453  .00033469  00000-0  20179-2 0  9997,2 53975  53.2176 123.4006 0001050  99.3444 260.7667 15.10487603 23194,6912.849,95.333,535.44,533.988,0.0
53975.0,STARLINK-5137,PAYLOAD,2023-03-04 12:47:55,15.10499203,0.0001124,53.2172,122.5073,95.6144,264.4977,0.0032438,0.00054155,0.0,0 STARLINK-5137,1 53975U 22125M   23063.53327972  .00054155  00000-0  32438-2 0  9995,2 53975  53.2172 122.5073 0001124  95.6144 264.4977 15.10499203 23152,6912.814,95.333,535.456,533.902,0.0
53975.0,STARLINK-5137,PAYLOAD,2023-03-04 20:44:20,15.10481878,0.0001386,53.2176,121.0185,98.5547,261.5603,0.0012934,0.00021307,0.0,0 STARLINK-5137,1 53975U 22125M   23063.86412496  .00021307  00000-0  12934-2 0  9999,2 53975  53.2176 121.0185 0001386  98.5547 261.5603 15.10481878 23202,6912.866,95.334,535.689,533.773,0.0
53975.0,STARLINK-5137,PAYLOAD,2023-03-05 20:33:34,15.10501525,0.0001932,53.2173,116.5507,85.984,274.1374,0.0023205,0.00038575,0.0,0 STARLINK-5137,1 53975U 22125M   23064.85665252  .00038575  00000-0  23205-2 0  9997,2 53975  53.2173 116.5507 0001932  85.9840 274.1374 15.10501525 23420,6912.806,95.333,536.007,533.336,0.0
53975.0,STARLINK-5137,PAYLOAD,2023-03-06 02:54:42,15.10507163,0.0002028,53.2155,115.3625,85.2442,274.8782,0.0018291,0.00030314,0.0,0 STARLINK-5137,1 53975U 22125M   23065.12132195  .00030314  00000-0  18291-2 0  9995,2 53975  53.2155 115.3625 0002028  85.2442 274.8782 15.10507163 23464,6912.789,95.332,536.056,533.252,0.0
53975.0,STARLINK-5137,PAYLOAD,2023-03-06 20:22:47,15.10501937,0.000145,53.2165,112.0841,94.3801,265.7358,0.0014423,0.00023816,0.0,0 STARLINK-5137,1 53975U 22125M   23065.84916636  .00023816  00000-0  14423-2 0  9996,2 53975  53.2165 112.0841 0001450  94.3801 265.7358 15.10501937 23503,6912.805,95.333,535.673,533.668,0.0
53975.0,STARLINK-5137,PAYLOAD,2023-03-07 09:05:04,15.10459246,7.6e-05,53.2168,109.7017,135.1046,225.0008,0.0017807,0.00029461,0.0,0 STARLINK-5137,1 53975U 22125M   23066.37852084  .00029461  00000-0  17807-2 0  9992,2 53975  53.2168 109.7017 0000760 135.1046 225.0008 15.10459246 23654,6912.935,95.335,535.326,534.275,0.0
53975.0,STARLINK-5137,PAYLOAD,2023-03-07 20:12:03,15.10460275,8.19e-05,53.2164,107.6183,113.9466,246.1613,0.0012007,0.00019743,0.0,0 STARLINK-5137,1 53975U 22125M   23066.84170807  .00019743  00000-0  12007-2 0  9999,2 53975  53.2164 107.6183 0000819 113.9466 246.1613 15.10460275 23656,6912.932,95.335,535.363,534.231,0.0
53975.0,STARLINK-5137,PAYLOAD,2023-03-08 02:33:11,15.10473609,7.6e-05,53.2163,106.4269,116.24,243.8671,0.0014052,0.00023175,0.0,0 STARLINK-5137,1 53975U 22125M   23067.10638215  .00023175  00000-0  14052-2 0  9997,2 53975  53.2163 106.4269 0000760 116.2400 243.8671 15.10473609 23761,6912.892,95.334,535.282,534.231,0.0
53975.0,STARLINK-5137,PAYLOAD,2023-03-08 08:54:18,15.10495939,9.12e-05,53.2159,105.2365,102.6327,257.4768,0.0017082,0.00028273,0.0,0 STARLINK-5137,1 53975U 22125M   23067.37105166  .00028273  00000-0  17082-2 0  9990,2 53975  53.2159 105.2365 0000912 102.6327 257.4768 15.10495939 23809,6912.823,95.333,535.319,534.058,0.0
53975.0,STARLINK-5137,PAYLOAD,2023-03-08 13:40:09,15.10518633,0.0001077,53.2169,104.3416,106.2396,253.8715,0.002134,0.00035452,0.0,0 STARLINK-5137,1 53975U 22125M   23067.56955056  .00035452  00000-0  21340-2 0  9991,2 53975  53.2169 104.3416 0001077 106.2396 253.8715 15.10518633 23838,6912.754,95.331,535.364,533.875,0.0
53975.0,STARLINK-5137,PAYLOAD,2023-03-08 20:01:17,15.10492219,0.0001378,53.217,103.1503,94.8235,265.2916,0.0012404,0.00020426,0.0,0 STARLINK-5137,1 53975U 22125M   23067.83422875  .00020426  00000-0  12404-2 0  9995,2 53975  53.2170 103.1503 0001378  94.8235 265.2916 15.10492219 23800,6912.835,95.333,535.652,533.747,0.0
53975.0,STARLINK-5137,PAYLOAD,2023-03-09 11:54:05,15.10521053,0.0001142,53.217,100.1717,104.093,256.019,0.0025463,0.00042403,0.0,0 STARLINK-5137,1 53975U 22125M   23068.49589897  .00042403  00000-0  25463-2 0  9994,2 53975  53.2170 100.1717 0001142 104.0930 256.0190 15.10521053 23901,6912.747,95.331,535.401,533.822,0.0
53975.0,STARLINK-5137,PAYLOAD,2023-03-10 08:32:45,15.10506935,0.0001365,53.2171,96.2988,100.1429,259.9718,0.0017155,0.00028405,0.0,0 STARLINK-5137,1 53975U 22125M   23069.35608176  .00028405  00000-0  17155-2 0  9997,2 53975  53.2171  96.2988 0001365 100.1429 259.9718 15.10506935 24107,6912.79,95.332,535.599,533.711,0.0
53975.0,STARLINK-5137,PAYLOAD,2023-03-10 11:43:19,15.10508372,0.0001396,53.2174,95.7043,98.7733,261.3418,0.001386,0.00022876,0.0,0 STARLINK-5137,1 53975U 22125M   23069.48841567  .00022876  00000-0  13860-2 0  9999,2 53975  53.2174  95.7043 0001396  98.7733 261.3418 15.10508372 24055,6912.786,95.332,535.616,533.686,0.0
53975.0,STARLINK-5137,PAYLOAD,2023-03-11 06:46:43,15.10473506,0.0001621,53.2175,92.1299,112.903,247.2134,0.00148,0.00024429,0.0,0 STARLINK-5137,1 53975U 22125M   23070.28244607  .00024429  00000-0  14800-2 0  9992,2 53975  53.2175  92.1299 0001621 112.9030 247.2134 15.10473506 24249,6912.892,95.334,535.877,533.636,0.0
53975.0,STARLINK-5137,PAYLOAD,2023-03-11 13:07:51,15.10473164,0.0001417,53.2175,90.9389,81.7881,278.3273,0.0010379,0.00017026,0.0,0 STARLINK-5137,1 53975U 22125M   23070.54712172  .00017026  00000-0  10379-2 0  9990,2 53975  53.2175  90.9389 0001417  81.7881 278.3273 15.10473164 24211,6912.893,95.334,535.738,533.778,0.0
53975.0,STARLINK-5137,PAYLOAD,2023-03-12 01:50:06,15.10475101,0.0001601,53.218,88.5558,94.2218,265.8958,0.00054708,8.826e-05,0.0,0 STARLINK-5137,1 53975U 22125M   23071.07646962  .00008826  00000-0  54708-3 0  9995,2 53975  53.2180  88.5558 0001601  94.2218 265.8958 15.10475101 24366,6912.887,95.334,535.859,533.645,0.0
53975.0,STARLINK-5137,PAYLOAD,2023-03-12 05:00:40,15.10480779,0.0001641,53.2179,87.9603,93.3673,266.7507,0.00068152,0.00011072,0.0,0 STARLINK-5137,1 53975U 22125M   23071.20880533  .00011072  00000-0  68152-3 0  9999,2 53975  53.2179  87.9603 0001641  93.3673 266.7507 15.10480779 24319,6912.87,95.334,535.869,533.6,0.0
53975.0,STARLINK-5137,PAYLOAD,2023-03-12 08:11:14,15.10487156,0.0001666,53.2181,87.3648,94.048,266.0703,0.0008007,0.00013066,0.0,0 STARLINK-5137,1 53975U 22125M   23071.34114027  .00013066  00000-0  80070-3 0  9990,2 53975  53.2181  87.3648 0001666  94.0480 266.0703 15.10487156 24403,6912.85,95.333,535.867,533.564,0.0
53975.0,STARLINK-5137,PAYLOAD,2023-03-13 01:39:20,15.10490931,0.0001831,53.218,84.0874,98.1814,261.9387,0.00041607,6.643e-05,0.0,0 STARLINK-5137,1 53975U 22125M   23072.06898579  .00006643  00000-0  41607-3 0  9997,2 53975  53.2180  84.0874 0001831  98.1814 261.9387 15.10490931 24516,6912.839,95.333,535.969,533.438,0.0
53975.0,STARLINK-5137,PAYLOAD,2023-03-14 01:28:34,15.10478654,0.000159,53.2182,79.6225,95.122,264.9955,0.00015012,2.207e-05,0.0,0 STARLINK-5137,1 53975U 22125M   23073.06150966  .00002207  00000-0  15012-3 0  9992,2 53975  53.2182  79.6225 0001590  95.1220 264.9955 15.10478654 24666,6912.876,95.334,535.84,533.642,0.0
53975.0,STARLINK-5137,PAYLOAD,2023-03-14 07:49:42,15.10474622,0.0001456,53.2177,78.4314,83.2075,276.9083,-5.2348e-05,-1.164e-05,0.0,0 STARLINK-5137,1 53975U 22125M   23073.32618499 -.00001164  00000-0 -52348-4 0  9998,2 53975  53.2177  78.4314 0001456  83.2075 276.9083 15.10474622 24636,6912.889,95.334,535.76,533.747,0.0
53975.0,STARLINK-5137,PAYLOAD,2023-03-14 17:21:23,15.10479396,0.0001445,53.2182,76.6455,87.3462,272.7696,4.1272e-05,3.95e-06,0.0,0 STARLINK-5137,1 53975U 22125M   23073.72319096  .00000395  00000-0  41272-4 0  9990,2 53975  53.2182  76.6455 0001445  87.3462 272.7696 15.10479396 24694,6912.874,95.334,535.738,533.74,0.0
